OBJECT_NAME,OBJECT_ID,EPOCH,MEAN_MOTION,ECCENTRICITY,INCLINATION,RA_OF_ASC_NODE,ARG_OF_PERICENTER,MEAN_ANOMALY,EPHEMERIS_TYPE,CLASSIFICATION_TYPE,NORAD_CAT_ID,ELEMENT_SET_NO,REV_AT_EPOCH,BSTAR,MEAN_MOTION_DOT,MEAN_MOTION_DDOT
HST,1990-037B,2026-06-07T07:09:32.201568,15.30642118,.0001938,28.4712,148.1547,44.7656,315.3096,0,U,20580,999,78705,.18954E-3,.601E-4,0
POLAR,1996-013A,2026-06-08T13:32:54.294720,1.29846146,.6462019,79.8436,227.1533,209.3782,89.3193,0,U,23802,999,14474,0,.117E-5,0
SWAS,1998-071A,2026-06-08T12:49:17.440032,15.09572739,.00089449,69.8962,249.8323,267.6953,92.3187,0,U,25560,999,49596,.27821953E-3,.4378E-4,0
CXO,1999-040B,2026-06-10T10:37:10.661664,0.37805334,.78525481,56.0540,116.8503,310.2578,0.2529,0,U,25867,999,1729,0,.667E-5,0
XMM-NEWTON,1999-066A,2026-06-10T08:49:38.702784,0.50122831,.46777641,64.5271,283.0748,65.0342,0.0416,0,U,25989,999,2297,0,.89E-6,0
TERRA,1999-068A,2026-06-09T03:30:46.226304,14.61096650,.0000997,97.9459,210.0112,226.6941,217.2265,0,U,25994,999,40843,.77614E-4,.337E-5,0
CLUSTER II-FM7 (SAMBA),2000-041A,2026-06-10T10:42:37.438560,0.44840364,.90481912,149.9132,49.6129,266.6863,359.9829,0,U,26410,999,2028,0,.4459E-4,0
CLUSTER II-FM8 (TANGO),2000-045B,2026-06-06T04:22:15.257856,0.44406384,.90462015,150.1407,49.6985,266.6195,3.2041,0,U,26464,999,2026,0,.4544E-4,0
ODIN,2001-007A,2026-06-09T02:04:25.356576,15.73146623,.0006524,97.3859,200.5220,153.1212,207.0391,0,U,26702,999,38812,.97686E-3,.135654E-2,0
TIMED,2001-055B,2026-06-08T23:30:32.436576,14.95277067,.0000655,74.0679,251.5439,351.7754,8.3419,0,U,26998,999,32959,.1255E-3,.1343E-4,0
CORIOLIS,2003-001A,2026-06-09T00:33:27.020160,14.19942563,.0013009,98.7126,167.0326,233.7419,126.2556,0,U,27640,999,21306,.60666E-4,.85E-6,0
SORCE,2003-004A,2026-06-09T02:28:49.756224,15.03669280,.0017672,39.9917,307.7981,349.7405,10.3026,0,U,27651,999,27068,.19008E-3,.2505E-4,0
MOST,2003-031D,2026-06-08T23:23:48.115680,14.21320823,.0008693,98.7045,167.8154,277.3355,82.6834,0,U,27843,999,18954,.51936E-4,.69E-6,0
SCISAT 1,2003-036A,2026-06-09T04:33:00.465408,14.81439704,.0008689,73.9286,187.2332,256.2691,103.7519,0,U,27858,999,23026,.66698E-4,.486E-5,0
SWIFT,2004-047A,2026-06-08T14:21:17.847072,15.67465385,.00025087,20.5526,251.1191,160.7611,199.2930,0,U,28485,999,18551,.45448029E-3,.5275E-3,0
HINODE (SOLAR-B),2006-041A,2026-06-09T03:29:56.237856,14.68611852,.0016377,98.0548,176.4169,317.3478,42.6454,0,U,29479,999,5369,.1242E-3,.674E-5,0
SHIJIAN-6 02A (SJ-6 02A),2006-046A,2026-06-09T04:12:59.037120,15.16847969,.0003853,97.6367,201.1821,144.1468,216.0023,0,U,29505,999,7105,.28416E-3,.5523E-4,0
SHIJIAN-6 02B (SJ-6 02B),2006-046B,2026-06-09T03:34:07.366368,15.01356449,.0014802,97.7164,189.2570,83.4932,276.7977,0,U,29506,999,6953,.10082E-3,.1241E-4,0
FGRST (GLAST),2008-029A,2026-06-08T23:28:39.275040,15.23907653,.000774,25.5825,261.4807,227.0054,132.9836,0,U,33053,999,99458,.10744E-3,.3008E-4,0
SDO,2010-005A,2026-06-08T07:45:40.929696,1.00270840,.00015164,34.6325,86.4781,53.0773,131.5755,0,U,36395,999,5997,0,-.6E-6,0
CRYOSAT 2,2010-013A,2026-06-09T03:44:10.680288,14.51896690,.0002215,92.0348,275.3497,86.4816,273.6644,0,U,36508,999,85691,.27792E-4,.115E-5,0
X-SAT,2011-015C,2026-06-09T05:19:50.571840,14.25203301,.0014475,98.3510,137.6253,11.5793,348.5718,0,U,37389,999,78654,-.71594E-5,-.58E-6,0
GCOM-W1 (SHIZUKU),2012-025A,2026-06-09T03:02:50.556192,14.57116993,.0001859,98.2020,100.8048,80.8593,293.8326,0,U,38337,999,74786,.10192E-3,.414E-5,0
NUSTAR,2012-031A,2026-06-09T06:00:02.998944,15.08719010,.0007808,6.0262,93.6553,341.2169,78.2393,0,U,38358,999,130,.12037E-2,.20381E-3,0
NEOSSAT,2013-009D,2026-06-09T01:20:54.486816,14.35823491,.0009773,98.4176,340.2824,271.0567,88.9499,0,U,39089,999,69557,.57232E-4,.123E-5,0
BRITE-AUSTRIA,2013-009F,2026-06-09T01:24:45.213696,14.36538801,.0008962,98.3993,339.6960,263.9907,96.0258,0,U,39091,999,69588,.66011E-4,.151E-5,0
IRIS,2013-033A,2026-06-09T02:00:51.177024,14.85868723,.0024175,97.9335,359.3864,348.9993,11.0690,0,U,39197,999,69917,.1113E-3,.918E-5,0
HISAKI (SPRINT-A),2013-049A,2026-06-08T21:06:56.926656,13.55543816,.0136895,29.7204,262.2481,309.5329,49.3214,0,U,39253,999,63029,.808E-4,.125E-5,0
CASSIOPE,2013-055A,2026-06-09T02:10:31.998432,15.24449678,.0295414,80.9147,76.5466,89.5868,273.9205,0,U,39265,999,66643,.44862E-3,.40702E-3,-.59651E-6
STSAT-3,2013-066G,2026-06-09T04:32:03.482880,15.02709529,.0010998,97.6216,130.2063,65.7851,294.4523,0,U,39422,999,68300,.21152E-3,.2767E-4,0
SWARM B,2013-067A,2026-06-09T03:31:18.920064,15.28501902,.0003391,87.7441,344.7604,90.2569,269.9069,0,U,39451,999,68201,.10539E-3,.2957E-4,0
